satname,norad_id,inclination_deg,eccentricity,mean_motion_rev_per_day,perigee_km,apogee_km,l1,l2
STARLINK-1454,45671,53.0513,0.0007121,15.47451347,419.3408508911525,429.0287175762587,1 45671U 20035Q   26051.39576604  .00059890  00000+0  11476-2 0  9998,2 45671  53.0513 135.7262 0007121 352.6008   7.4893 15.47451347316230
STARLINK-1456,45673,53.0484,0.0001167,15.48783979,419.48886654995385,421.07561760105364,1 45673U 20035S   26051.91668981  .00182384  00000+0  32707-2 0  9993,2 45673  53.0484 126.7500 0001167  85.2639 296.6000 15.48783979  5885
STARLINK-1457,45674,53.0467,0.000963,15.74374063,339.9372063576575,352.8886895574251,1 45674U 20035T   26051.91668981  .00062279  00000+0  42189-3 0  9990,2 45674  53.0467 106.1420 0009630   3.9924 285.5912 15.74374063  5908
STARLINK-1458,45675,53.053,0.0005083,15.40684508,440.62014313889995,447.5556169519541,1 45675U 20035U   26051.43663017  .00052595  00000+0  12700-2 0  9998,2 45675  53.0530 137.2814 0005083  18.1634 341.9550 15.40684508316198
STARLINK-1460,45676,53.0772,0.0001267,15.12451051,527.8527172912209,529.6029168358646,1 45676U 20035V   26051.91668981  .00008372  00000+0  49245-3 0  9996,2 45676  53.0772 141.8222 0001267  29.0633  30.1933 15.12451051  5732
STARLINK-1392,45677,53.0679,6.69e-05,15.10755468,533.4323415738218,534.3571714228401,1 45677U 20035W   26051.91668981  .00046584  00000+0  27758-2 0  9998,2 45677  53.0679 141.8939 0000669 181.2528 138.3851 15.10755468  5482
STARLINK-1394,45679,53.0499,0.000192,15.47155498,423.74570995164777,426.358134497782,1 45679U 20035Y   26051.91668981  .00140214  00000+0  26774-2 0  9992,2 45679  53.0499 116.8461 0001920  95.1433   6.9407 15.47155498  5827
STARLINK-1402,45685,53.0484,0.0001701,15.42223524,438.3887458872359,440.70812247194317,1 45685U 20035AE  26051.42960816  .00053197  00000+0  12207-2 0  9996,2 45685  53.0484 105.3970 0001701 222.1260 137.9614 15.42223524316688
STARLINK-1404,45686,53.1583,0.0001386,15.30197494,474.2726762599341,476.1724275277202,1 45686U 20035AF  26051.45277530  .00003486  00000+0  12978-3 0  9996,2 45686  53.1583 129.7638 0001386  86.2572 273.8587 15.30197494316339
STARLINK-1413,45689,53.1613,0.0001469,15.30193632,474.22732297330367,476.24084339754427,1 45689U 20035AJ  26051.52439368  .00001154  00000+0  51091-4 0  9996,2 45689  53.1613 129.3095 0001469  83.8552 276.2616 15.30193632316264
STARLINK-1417,45693,53.0503,0.0003415,15.11512778,529.2261463744317,533.9454870582495,1 45693U 20035AN  26051.54375845  .00023513  00000+0  13849-2 0  9992,2 45693  53.0503 131.9561 0003415 185.2314 174.8642 15.11512778316301
STARLINK-1420,45695,53.0546,0.0003025,15.4823588,419.8296359992164,423.9436503033239,1 45695U 20035AQ  26051.41048839  .00029796  00000+0  56232-3 0  9993,2 45695  53.0546 105.4683 0003025  45.3561 314.7692 15.48235880316674
STARLINK-1422,45696,53.1596,0.0001374,15.30195878,474.2857247305583,476.16902926135754,1 45696U 20035AR  26051.72770709  .00001762  00000+0  71612-4 0  9999,2 45696  53.1596 128.3681 0001374  86.1147 274.0011 15.30195878316374
STARLINK-1351,45697,53.0532,0.0002016,15.49567533,416.620158115491,419.36035662566246,1 45697U 20035AS  26051.51015000  .00018465  00000+0  33619-3 0  9995,2 45697  53.0532 104.1339 0002016  56.7787 303.3414 15.49567533316704
STARLINK-1398,45699,53.0409,0.0005325,15.85287853,311.9499659573412,319.0787046294299,1 45699U 20035AU  26051.91668981  .00164560  00000+0  66686-3 0  9991,2 45699  53.0409  24.6156 0005325  64.4105 270.3930 15.85287853  5972
STARLINK-1400,45700,53.0515,0.0006284,15.4727475,420.42745527195893,428.9772637790111,1 45700U 20035AV  26051.65200495  .00069840  00000+0  13437-2 0  9997,2 45700  53.0515 104.5589 0006284  27.9757 332.1586 15.47274750316703
STARLINK-1403,45701,53.0555,0.0001445,15.06386369,546.252616401629,548.2540542085317,1 45701U 20035AW  26051.42434054 -.00001862  00000+0 -10619-3 0  9995,2 45701  53.0555 114.1327 0001445  94.9566 265.1588 15.06386369316545
STARLINK-1407,45703,53.0371,0.0013668,15.56497015,388.5431228631078,407.06583649195454,1 45703U 20035AY  26051.37639892  .00024647  00000+0  34615-3 0  9994,2 45703  53.0371  39.8462 0013668  37.3632 322.8327 15.56497015317595
STARLINK-1411,45706,53.045,0.0005228,15.5857407,388.2437936286997,395.32242209347896,1 45706U 20035BB  26051.46222730  .00061242  00000+0  78549-3 0  9992,2 45706  53.0450  65.3871 0005228  53.8561 306.2934 15.58574070317231
STARLINK-1423,45710,53.0516,0.0005403,15.49251374,415.242378853166,422.58727305629327,1 45710U 20035BF  26051.38583382  .00059284  00000+0  10675-2 0  9999,2 45710  53.0516 105.1579 0005403  34.7250 325.4110 15.49251374316669
STARLINK-1433,45711,53.0511,0.0005884,15.51416675,408.59329344888647,416.58461975461614,1 45711U 20035BG  26051.62697590  .00079394  00000+0  13181-2 0  9993,2 45711  53.0511 103.2988 0005884  33.3886 326.7493 15.51416675316715
STARLINK-1434,45712,53.0527,0.0003613,15.24899962,488.603994836104,493.5676952639378,1 45712U 20035BH  26051.40626507  .00034219  00000+0  13646-2 0  9993,2 45712  53.0527  99.9683 0003613  23.4154 336.7007 15.24899962316752
STARLINK-1465,45731,53.0538,0.0004194,15.47156483,422.1957784930164,427.90229093893504,1 45731U 20038B   26051.08867080  .00063504  00000+0  12290-2 0  9997,2 45731  53.0538 307.4148 0004194 143.5971 216.5321 15.47156483313653
STARLINK-1471,45735,53.0469,0.0003166,15.47826099,420.9335094701837,425.24004436572704,1 45735U 20038F   26051.73474337  .00023407  00000+0  45022-3 0  9990,2 45735  53.0469 223.1869 0003166 158.2149 201.8993 15.47826099314900
STARLINK-1474,45738,53.0149,0.0009258,16.21219593,210.13755664511973,222.3477099741558,1 45738U 20038J   26051.73413772  .01496875  11863-4  67975-3 0  9998,2 45738  53.0149 148.4176 0009258 342.0894  17.9816 16.21219593315938
STARLINK-1480,45741,53.0523,0.0010123,15.45484498,423.06301120898024,436.8466739534706,1 45741U 20038M   26050.89588061  .00057537  00000+0  11794-2 0  9992,2 45741  53.0523 302.2039 0010123 119.2677 240.9342 15.45484498313722
STARLINK-1500,45744,53.0364,0.0003732,15.33728877,462.1449402499802,467.2524328064055,1 45744U 20038Q   26051.02396210  .00020491  00000+0  62898-3 0  9995,2 45744  53.0364 275.5490 0003732 161.7924 198.3211 15.33728877314109
STARLINK-1504,45746,53.0231,0.0003199,15.5190013,409.00666272221315,413.3504668205551,1 45746U 20038S   26051.75622914  .00029419  00000+0  48809-3 0  9995,2 45746  53.0231 223.8003 0003199 143.2630 216.8598 15.51900130314889
STARLINK-1506,45747,53.0776,0.0004084,15.25623808,486.10839345805744,491.7173998136286,1 45747U 20038T   26051.04018174  .00009026  00000+0  36324-3 0  9996,2 45747  53.0776 283.9574 0004084 165.5997 194.5117 15.25623808313996
STARLINK-1464,45751,53.0521,0.0004082,15.42272935,436.6198979806668,442.1857374878655,1 45751U 20038X   26051.79095502  .00032407  00000+0  74798-3 0  9999,2 45751  53.0521 284.8535 0004082 153.4152 206.7062 15.42272935314045
STARLINK-1477,45754,53.0503,0.0001987,15.13297291,524.7808028163208,527.5245675372107,1 45754U 20038AA  26051.79737123  .00023074  00000+0  12938-2 0  9991,2 45754  53.0503 289.6737 0001987  84.3366 275.7853 15.13297291313970
STARLINK-1478,45755,53.0529,0.0006887,15.51636562,407.271054443735,416.6237166764049,1 45755U 20038AB  26051.77458954  .00072955  00000+0  12031-2 0  9998,2 45755  53.0529 279.4439 0006887 145.0177 215.1285 15.51636562314107
STARLINK-1484,45756,53.0026,0.0005899,15.90915014,295.781852183728,303.66038919451694,1 45756U 20038AC  26051.91668981  .00182531  23356-4  57749-3 0  9990,2 45756  53.0026 142.8607 0005899 350.5279 300.5275 15.90915014  6008
STARLINK-1493,45759,53.0529,0.0002254,15.4467023,430.8121252610408,433.8822915421879,1 45759U 20038AF  26051.85002026  .00072874  00000+0  15328-2 0  9998,2 45759  53.0529 284.9807 0002254 153.3748 206.7374 15.44670230314030
STARLINK-1494,45760,53.0487,0.0001943,15.70287573,356.7656183098152,359.38331008480236,1 45760U 20038AG  26051.77555222  .00075644  00000+0  60870-3 0  9993,2 45760  53.0487 235.4875 0001943 262.0380  98.0416 15.70287573314734
STARLINK-1502,45764,53.0533,0.0001613,15.44681888,431.21441612666786,433.41146727786145,1 45764U 20038AL  26051.03404408  .00045771  00000+0  96909-3 0  9995,2 45764  53.0533 290.2046 0001613  63.8290 296.2882 15.44681888313905
STARLINK-1470,45772,53.0451,0.0002936,15.26343911,484.7373571601793,488.7684205029009,1 45772U 20038AU  26051.78928100  .00022610  00000+0  86928-3 0  9993,2 45772  53.0451 252.6556 0002936 138.9628 221.1590 15.26343911314499
STARLINK-1482,45773,53.1572,0.0001494,15.30078812,474.55299396331066,476.600883688232,1 45773U 20038AV  26051.76451083  .00090341  00000+0  30368-2 0  9995,2 45773  53.1572 269.6347 0001494 117.7208 242.3944 15.30078812314250
STARLINK-1496,45780,53.0537,0.0007349,15.44993955,426.3915085567587,436.40015991652035,1 45780U 20038BC  26051.77428009  .00072129  00000+0  14996-2 0  9999,2 45780  53.0537 258.5529 0007349 139.6706 220.4846 15.44993955314390
STARLINK-1513,45786,53.1578,0.0001023,15.30108188,474.7880912475166,476.1903431715573,1 45786U 20038BJ  26051.77400361  .00043150  00000+0  14647-2 0  9991,2 45786  53.1578 269.7152 0001023  78.2102 281.9014 15.30108188314254
STARLINK-1522,46027,53.0562,0.0001182,15.06406729,546.3723608373311,548.0095083610704,1 46027U 20055A   26051.64456140  .00001863  00000+0  14393-3 0  9995,2 46027  53.0562 203.1354 0001182  88.3970 271.7154 15.06406729306317
STARLINK-1523,46028,53.0552,0.0001339,15.06394547,546.3009642385769,548.1555770580562,1 46028U 20055B   26051.72567072 -.00000225  00000+0  37568-5 0  9995,2 46028  53.0552 202.7725 0001339  89.7583 270.3559 15.06394547306344
STARLINK-1526,46029,53.0559,0.0001197,15.0639692,546.3920323584343,548.0499630630848,1 46029U 20055C   26051.65194646 -.00000868  00000+0 -39420-4 0  9993,2 46029  53.0559 203.1003 0001197  93.5736 266.5390 15.06396920306326
